[{"OBJECT_NAME":"STARLINK-36274","OBJECT_ID":"2026-054V","EPOCH":"2026-03-27T06:00:02.999808","MEAN_MOTION":15.80859218,"ECCENTRICITY":7.512e-5,"INCLINATION":53.1595,"RA_OF_ASC_NODE":224.5009,"ARG_OF_PERICENTER":90.3172,"MEAN_ANOMALY":253.4452,"EPHEMERIS_TYPE":0,"CLASSIFICATION_TYPE":"U","NORAD_CAT_ID":68251,"ELEMENT_SET_NO":999,"REV_AT_EPOCH":277,"BSTAR":0.00014287347,"MEAN_MOTION_DOT":0.00027572,"MEAN_MOTION_DDOT":0},{"OBJECT_NAME":"STARLINK-37085","OBJECT_ID":"2026-054W","EPOCH":"2026-03-27T06:00:02.999808","MEAN_MOTION":15.80835441,"ECCENTRICITY":0.00015446,"INCLINATION":53.1596,"RA_OF_ASC_NODE":224.4917,"ARG_OF_PERICENTER":94.723,"MEAN_ANOMALY":253.3213,"EPHEMERIS_TYPE":0,"CLASSIFICATION_TYPE":"U","NORAD_CAT_ID":68252,"ELEMENT_SET_NO":999,"REV_AT_EPOCH":273,"BSTAR":0.00035902337,"MEAN_MOTION_DOT":0.0007062,"MEAN_MOTION_DDOT":0},{"OBJECT_NAME":"STARLINK-37086","OBJECT_ID":"2026-054X","EPOCH":"2026-03-27T06:00:02.999808","MEAN_MOTION":15.80839196,"ECCENTRICITY":0.00011579,"INCLINATION":53.1596,"RA_OF_ASC_NODE":224.4834,"ARG_OF_PERICENTER":106.0689,"MEAN_ANOMALY":246.2384,"EPHEMERIS_TYPE":0,"CLASSIFICATION_TYPE":"U","NORAD_CAT_ID":68253,"ELEMENT_SET_NO":999,"REV_AT_EPOCH":273,"BSTAR":0.00037381599,"MEAN_MOTION_DOT":0.00073596,"MEAN_MOTION_DDOT":0},{"OBJECT_NAME":"STARLINK-37084","OBJECT_ID":"2026-054Y","EPOCH":"2026-03-27T06:00:02.999808","MEAN_MOTION":15.80814977,"ECCENTRICITY":0.00014252,"INCLINATION":53.1596,"RA_OF_ASC_NODE":224.4657,"ARG_OF_PERICENTER":82.1465,"MEAN_ANOMALY":278.7154,"EPHEMERIS_TYPE":0,"CLASSIFICATION_TYPE":"U","NORAD_CAT_ID":68254,"ELEMENT_SET_NO":999,"REV_AT_EPOCH":273,"BSTAR":0.00058013813,"MEAN_MOTION_DOT":0.00115029,"MEAN_MOTION_DDOT":0},{"OBJECT_NAME":"STARLINK-37075","OBJECT_ID":"2026-054Z","EPOCH":"2026-03-27T06:00:02.999808","MEAN_MOTION":15.80817878,"ECCENTRICITY":0.00011771,"INCLINATION":53.1594,"RA_OF_ASC_NODE":224.4744,"ARG_OF_PERICENTER":106.7512,"MEAN_ANOMALY":249.8318,"EPHEMERIS_TYPE":0,"CLASSIFICATION_TYPE":"U","NORAD_CAT_ID":68255,"ELEMENT_SET_NO":999,"REV_AT_EPOCH":273,"BSTAR":0.00059567042,"MEAN_MOTION_DOT":0.00118186,"MEAN_MOTION_DDOT":0},{"OBJECT_NAME":"STARLINK-36333","OBJECT_ID":"2026-054AA","EPOCH":"2026-03-27T06:00:02.999808","MEAN_MOTION":15.80823025,"ECCENTRICITY":7.953e-5,"INCLINATION":53.1594,"RA_OF_ASC_NODE":224.4571,"ARG_OF_PERICENTER":48.8092,"MEAN_ANOMALY":316.3313,"EPHEMERIS_TYPE":0,"CLASSIFICATION_TYPE":"U","NORAD_CAT_ID":68256,"ELEMENT_SET_NO":999,"REV_AT_EPOCH":277,"BSTAR":0.00043125086,"MEAN_MOTION_DOT":0.0008506,"MEAN_MOTION_DDOT":0},{"OBJECT_NAME":"STARLINK-36745","OBJECT_ID":"2026-054AB","EPOCH":"2026-03-27T06:00:02.999808","MEAN_MOTION":15.8085955,"ECCENTRICITY":7.133e-5,"INCLINATION":53.1593,"RA_OF_ASC_NODE":224.4385,"ARG_OF_PERICENTER":113.1149,"MEAN_ANOMALY":260.5407,"EPHEMERIS_TYPE":0,"CLASSIFICATION_TYPE":"U","NORAD_CAT_ID":68257,"ELEMENT_SET_NO":999,"REV_AT_EPOCH":273,"BSTAR":-5.9714106e-5,"MEAN_MOTION_DOT":-0.00012459,"MEAN_MOTION_DDOT":0},{"OBJECT_NAME":"STARLINK-36890","OBJECT_ID":"2026-054AC","EPOCH":"2026-03-27T06:00:02.999808","MEAN_MOTION":15.81114594,"ECCENTRICITY":8.576e-5,"INCLINATION":53.1594,"RA_OF_ASC_NODE":224.4305,"ARG_OF_PERICENTER":70.9675,"MEAN_ANOMALY":306.8562,"EPHEMERIS_TYPE":0,"CLASSIFICATION_TYPE":"U","NORAD_CAT_ID":68258,"ELEMENT_SET_NO":999,"REV_AT_EPOCH":273,"BSTAR":-0.0020867143,"MEAN_MOTION_DOT":-0.00398546,"MEAN_MOTION_DDOT":0},{"OBJECT_NAME":"STARLINK-36323","OBJECT_ID":"2026-054AD","EPOCH":"2026-03-27T06:00:02.999808","MEAN_MOTION":15.80823873,"ECCENTRICITY":0.00011418,"INCLINATION":53.1595,"RA_OF_ASC_NODE":224.4478,"ARG_OF_PERICENTER":61.1664,"MEAN_ANOMALY":308.2403,"EPHEMERIS_TYPE":0,"CLASSIFICATION_TYPE":"U","NORAD_CAT_ID":68259,"ELEMENT_SET_NO":999,"REV_AT_EPOCH":277,"BSTAR":0.00048566086,"MEAN_MOTION_DOT":0.00096007,"MEAN_MOTION_DDOT":0},{"OBJECT_NAME":"STARLINK-37056","OBJECT_ID":"2026-054AE","EPOCH":"2026-03-27T06:00:02.999808","MEAN_MOTION":15.81309054,"ECCENTRICITY":0.00010153,"INCLINATION":53.1593,"RA_OF_ASC_NODE":224.4217,"ARG_OF_PERICENTER":98.3562,"MEAN_ANOMALY":283.6241,"EPHEMERIS_TYPE":0,"CLASSIFICATION_TYPE":"U","NORAD_CAT_ID":68260,"ELEMENT_SET_NO":999,"REV_AT_EPOCH":273,"BSTAR":-0.0034302234,"MEAN_MOTION_DOT":-0.00642531,"MEAN_MOTION_DDOT":0},{"OBJECT_NAME":"TEN-KOH 2","OBJECT_ID":"2025-241B","EPOCH":"2026-03-27T03:27:18.981216","MEAN_MOTION":15.22709479,"ECCENTRICITY":0.00044279,"INCLINATION":51.6379,"RA_OF_ASC_NODE":349.877,"ARG_OF_PERICENTER":218.7128,"MEAN_ANOMALY":141.3532,"EPHEMERIS_TYPE":0,"CLASSIFICATION_TYPE":"U","NORAD_CAT_ID":68261,"ELEMENT_SET_NO":999,"REV_AT_EPOCH":240,"BSTAR":0.0003833392,"MEAN_MOTION_DOT":8.739e-5,"MEAN_MOTION_DDOT":0},{"OBJECT_NAME":"STARLINK-37162","OBJECT_ID":"2026-055A","EPOCH":"2026-03-27T06:00:02.999808","MEAN_MOTION":15.98244844,"ECCENTRICITY":6.122e-5,"INCLINATION":53.1591,"RA_OF_ASC_NODE":249.8079,"ARG_OF_PERICENTER":80.9642,"MEAN_ANOMALY":214.0746,"EPHEMERIS_TYPE":0,"CLASSIFICATION_TYPE":"U","NORAD_CAT_ID":68262,"ELEMENT_SET_NO":999,"REV_AT_EPOCH":245,"BSTAR":-0.0019758882,"MEAN_MOTION_DOT":-0.00941455,"MEAN_MOTION_DDOT":0.00029232322},{"OBJECT_NAME":"STARLINK-37156","OBJECT_ID":"2026-055B","EPOCH":"2026-03-27T06:00:02.999808","MEAN_MOTION":15.9833524,"ECCENTRICITY":6.404e-5,"INCLINATION":53.1591,"RA_OF_ASC_NODE":249.8042,"ARG_OF_PERICENTER":70.7233,"MEAN_ANOMALY":226.2757,"EPHEMERIS_TYPE":0,"CLASSIFICATION_TYPE":"U","NORAD_CAT_ID":68263,"ELEMENT_SET_NO":999,"REV_AT_EPOCH":245,"BSTAR":-0.0019615495,"MEAN_MOTION_DOT":-0.0093939,"MEAN_MOTION_DDOT":0.00029144451},{"OBJECT_NAME":"STARLINK-37163","OBJECT_ID":"2026-055C","EPOCH":"2026-03-27T06:00:02.999808","MEAN_MOTION":15.98583712,"ECCENTRICITY":5.714e-5,"INCLINATION":53.1589,"RA_OF_ASC_NODE":249.7934,"ARG_OF_PERICENTER":67.3945,"MEAN_ANOMALY":234.5295,"EPHEMERIS_TYPE":0,"CLASSIFICATION_TYPE":"U","NORAD_CAT_ID":68264,"ELEMENT_SET_NO":999,"REV_AT_EPOCH":245,"BSTAR":-0.0019390283,"MEAN_MOTION_DOT":-0.00941619,"MEAN_MOTION_DDOT":0.00029346502},{"OBJECT_NAME":"STARLINK-37133","OBJECT_ID":"2026-055D","EPOCH":"2026-03-27T06:00:02.999808","MEAN_MOTION":15.98461569,"ECCENTRICITY":5.65e-5,"INCLINATION":53.1589,"RA_OF_ASC_NODE":249.7988,"ARG_OF_PERICENTER":75.6783,"MEAN_ANOMALY":223.8485,"EPHEMERIS_TYPE":0,"CLASSIFICATION_TYPE":"U","NORAD_CAT_ID":68265,"ELEMENT_SET_NO":999,"REV_AT_EPOCH":245,"BSTAR":-0.0019507522,"MEAN_MOTION_DOT":-0.00940842,"MEAN_MOTION_DDOT":0.00029264937},{"OBJECT_NAME":"STARLINK-37042","OBJECT_ID":"2026-055E","EPOCH":"2026-03-27T06:00:02.999808","MEAN_MOTION":15.98738906,"ECCENTRICITY":5.937e-5,"INCLINATION":53.1589,"RA_OF_ASC_NODE":249.7872,"ARG_OF_PERICENTER":66.5632,"MEAN_ANOMALY":238.5152,"EPHEMERIS_TYPE":0,"CLASSIFICATION_TYPE":"U","NORAD_CAT_ID":68266,"ELEMENT_SET_NO":999,"REV_AT_EPOCH":245,"BSTAR":-0.0019248863,"MEAN_MOTION_DOT":-0.00942939,"MEAN_MOTION_DDOT":0.00029469277}]
