STARLINK-36274          
1 68251U 26054V   26086.25003472  .00027572  00000+0  14287-3 0  9991
2 68251  53.1595 224.5009 0000751  90.3172 253.4452 15.80859218  2777
STARLINK-37085          
1 68252U 26054W   26086.25003472  .00070620  00000+0  35902-3 0  9991
2 68252  53.1596 224.4917 0001544  94.7230 253.3213 15.80835441  2732
STARLINK-37086          
1 68253U 26054X   26086.25003472  .00073596  00000+0  37382-3 0  9991
2 68253  53.1596 224.4834 0001157 106.0689 246.2384 15.80839196  2737
STARLINK-37084          
1 68254U 26054Y   26086.25003472  .00115029  00000+0  58014-3 0  9995
2 68254  53.1596 224.4657 0001425  82.1465 278.7154 15.80814977  2730
STARLINK-37075          
1 68255U 26054Z   26086.25003472  .00118186  00000+0  59567-3 0  9997
2 68255  53.1594 224.4744 0001177 106.7512 249.8318 15.80817878  2730
STARLINK-36333          
1 68256U 26054AA  26086.25003472  .00085060  00000+0  43125-3 0  9995
2 68256  53.1594 224.4571 0000795  48.8092 316.3313 15.80823025  2773
STARLINK-36745          
1 68257U 26054AB  26086.25003472 -.00012459  00000+0 -59714-4 0  9992
2 68257  53.1593 224.4385 0000713 113.1149 260.5407 15.80859550  2737
STARLINK-36890          
1 68258U 26054AC  26086.25003472 -.00398546  00000+0 -20867-2 0  9992
2 68258  53.1594 224.4305 0000857  70.9675 306.8562 15.81114594  2733
STARLINK-36323          
1 68259U 26054AD  26086.25003472  .00096007  00000+0  48566-3 0  9995
2 68259  53.1595 224.4478 0001141  61.1664 308.2403 15.80823873  2773
STARLINK-37056          
1 68260U 26054AE  26086.25003472 -.00642531  00000+0 -34302-2 0  9990
2 68260  53.1593 224.4217 0001015  98.3562 283.6241 15.81309054  2736
TEN-KOH 2               
1 68261U 25241B   26086.14396969  .00008739  00000+0  38334-3 0  9996
2 68261  51.6379 349.8770 0004427 218.7128 141.3532 15.22709479  2401
STARLINK-37162          
1 68262U 26055A   26086.25003472 -.00941455  29232-3 -19759-2 0  9991
2 68262  53.1591 249.8079 0000612  80.9642 214.0746 15.98244844  2451
STARLINK-37156          
1 68263U 26055B   26086.25003472 -.00939390  29144-3 -19615-2 0  9990
2 68263  53.1591 249.8042 0000640  70.7233 226.2757 15.98335240  2454
STARLINK-37163          
1 68264U 26055C   26086.25003472 -.00941619  29347-3 -19390-2 0  9993
2 68264  53.1589 249.7934 0000571  67.3945 234.5295 15.98583712  2454
STARLINK-37133          
1 68265U 26055D   26086.25003472 -.00940842  29265-3 -19508-2 0  9991
2 68265  53.1589 249.7988 0000565  75.6783 223.8485 15.98461569  2456
STARLINK-37042          
1 68266U 26055E   26086.25003472 -.00942939  29469-3 -19249-2 0  9999
2 68266  53.1589 249.7872 0000593  66.5632 238.5152 15.98738906  2458
